NORAD_CAT_ID,OBJECT_NAME,OBJECT_TYPE,EPOCH,MEAN_MOTION,ECCENTRICITY,INCLINATION,RA_OF_ASC_NODE,ARG_OF_PERICENTER,MEAN_ANOMALY,BSTAR,MEAN_MOTION_DOT,MEAN_MOTION_DDOT,TLE_LINE0,TLE_LINE1,TLE_LINE2,SEMIMAJOR_AXIS,PERIOD,APOGEE,PERIGEE,DECAYED
51981.0,STARLINK-3635,PAYLOAD,2022-03-25 04:00:00,15.73296376,0.0001341,53.2199,62.5267,77.2142,285.0023,-0.0008212,-0.00114782,0.0,0 STARLINK-3635,1 51981U 22025AB  22084.16667824 -.00114782  00000-0 -82120-3 0  9992,2 51981  53.2199  62.5267 0001341  77.2142 285.0023 15.73296376  3737,6727.62,91.528,350.38800000000015,348.583,0.0
51981.0,STARLINK-3635,PAYLOAD,2022-03-25 14:00:01,15.73209305,0.0001288,53.2196,60.4646,76.91,126.543,-0.0011836,-0.00163604,0.0,0 STARLINK-3635,1 51981U 22025AB  22084.58334491 -.00163604  00000-0 -11836-2 0  9991,2 51981  53.2196  60.4646 0001288  76.9100 126.5430 15.73209305  2749,6727.869000000002,91.533,350.6,348.867,0.0
51981.0,STARLINK-3635,PAYLOAD,2022-03-25 22:00:01,15.73098652,0.0001183,53.2193,58.8139,86.2431,206.1431,0.00058717,0.00082236,0.0,0 STARLINK-3635,1 51981U 22025AB  22084.91668981  .00082236  00000-0  58717-3 0  9991,2 51981  53.2193  58.8139 0001183  86.2431 206.1431 15.73098652  2791,6728.184,91.539,350.845,349.25300000000016,0.0
51981.0,STARLINK-3635,PAYLOAD,2022-03-26 04:00:00,15.73138919,0.0001258,53.2181,57.5788,77.0818,191.8595,0.00025545,0.00035288,0.0,0 STARLINK-3635,1 51981U 22025AB  22085.16667824  .00035288  00000-0  25545-3 0  9992,2 51981  53.2181  57.5788 0001258  77.0818 191.8595 15.73138919  3898,6728.069,91.537,350.781,349.088,0.0
51981.0,STARLINK-3635,PAYLOAD,2022-03-26 14:00:01,15.73194305,0.0001211,53.2177,55.5164,79.9799,30.0449,0.00012168,0.00016486,0.0,0 STARLINK-3635,1 51981U 22025AB  22085.58334491  .00016486  00000-0  12168-3 0  9995,2 51981  53.2177  55.5164 0001211  79.9799  30.0449 15.73194305  2901,6727.911,91.534,350.591,348.962,0.0
51981.0,STARLINK-3635,PAYLOAD,2022-03-26 22:00:00,15.7323877,0.0001308,53.2179,53.8661,90.8183,108.1308,-0.00028553,-0.00040566,0.0,0 STARLINK-3635,1 51981U 22025AB  22085.91667824 -.00040566  00000-0 -28553-3 0  9994,2 51981  53.2179  53.8661 0001308  90.8183 108.1308 15.73238770  2953,6727.785,91.531,350.53,348.77,0.0
51981.0,STARLINK-3635,PAYLOAD,2022-03-27 04:00:00,15.73213614,0.000134,53.2178,52.6306,81.0667,94.5966,-0.00062228,-0.00087105,0.0,0 STARLINK-3635,1 51981U 22025AB  22086.16667824 -.00087105  00000-0 -62228-3 0  9999,2 51981  53.2178  52.6306 0001340  81.0667  94.5966 15.73213614  4040,6727.856,91.532,350.62300000000016,348.82,0.0
51981.0,STARLINK-3635,PAYLOAD,2022-03-27 12:00:00,15.73212061,0.0001227,53.2177,50.9808,81.7781,182.8084,-0.00038522,-0.00054362,0.0,0 STARLINK-3635,1 51981U 22025AB  22086.50001157 -.00054362  00000-0 -38522-3 0  9997,2 51981  53.2177  50.9808 0001227  81.7781 182.8084 15.73212061  4109,6727.861,91.532,350.551,348.9,0.0
51981.0,STARLINK-3635,PAYLOAD,2022-03-27 14:00:01,15.73218966,0.0001248,53.218,50.5679,85.0557,291.7583,-0.0005871,-0.0008227999999999,0.0,0 STARLINK-3635,1 51981U 22025AB  22086.58334491 -.00082280  00000-0 -58710-3 0  9996,2 51981  53.2180  50.5679 0001248  85.0557 291.7583 15.73218966  3064,6727.840999999999,91.532,350.546,348.866,0.0
51981.0,STARLINK-3635,PAYLOAD,2022-03-27 22:00:01,15.731569699999998,0.0001509,53.2185,48.9175,92.4868,13.3035,0.00050271,0.00070395,0.0,0 STARLINK-3635,1 51981U 22025AB  22086.91668981  .00070395  00000-0  50271-3 0  9993,2 51981  53.2185  48.9175 0001509  92.4868  13.3035 15.73156970  3110,6728.018,91.536,350.898,348.86800000000005,0.0
51981.0,STARLINK-3635,PAYLOAD,2022-03-28 04:00:00,15.73198468,0.00015,53.2183,47.6822,84.4945,357.9089,0.00034009,0.00047376,0.0,0 STARLINK-3635,1 51981U 22025AB  22087.16667824  .00047376  00000-0  34009-3 0  9990,2 51981  53.2183  47.6822 0001500  84.4945 357.9089 15.73198468  4206,6727.9,91.533,350.774,348.755,0.0
51981.0,STARLINK-3635,PAYLOAD,2022-03-28 14:00:01,15.73300521,0.0001328,53.2181,45.6191,91.1114,192.5533,-0.00056125,-0.0007899,0.0,0 STARLINK-3635,1 51981U 22025AB  22087.58335648 -.00078990  00000-0 -56125-3 0  9993,2 51981  53.2181  45.6191 0001328  91.1114 192.5533 15.73300521  3225,6727.609,91.527,350.367,348.58,0.0
51981.0,STARLINK-3635,PAYLOAD,2022-03-28 22:00:00,15.73278602,0.0001279,53.2183,43.969,97.4427,275.1538,-0.00041852,-0.00059142,0.0,0 STARLINK-3635,1 51981U 22025AB  22087.91667824 -.00059142  00000-0 -41852-3 0  9993,2 51981  53.2183  43.9690 0001279  97.4427 275.1538 15.73278602  3275,6727.670999999999,91.529,350.397,348.676,0.0
51981.0,STARLINK-3635,PAYLOAD,2022-03-29 04:00:00,15.73253924,0.0001207,53.2182,42.7335,89.5271,259.8249,-0.00073738,-0.00103083,0.0,0 STARLINK-3635,1 51981U 22025AB  22088.16667824 -.00103083  00000-0 -73738-3 0  9993,2 51981  53.2182  42.7335 0001207  89.5271 259.8249 15.73253924  4366,6727.741,91.53,350.418,348.7940000000001,0.0
51981.0,STARLINK-3635,PAYLOAD,2022-03-29 14:00:01,15.73135706,8.39e-05,53.2186,40.6703,97.7618,92.7645,0.00025038,0.00034567,0.0,0 STARLINK-3635,1 51981U 22025AB  22088.58334491  .00034567  00000-0  25038-3 0  9998,2 51981  53.2186  40.6703 0000839  97.7618  92.7645 15.73135706  3384,6728.078,91.537,350.5080000000001,349.379,0.0
51981.0,STARLINK-3635,PAYLOAD,2022-03-29 20:00:01,15.73152986,9.36e-05,53.2187,39.4324,106.841,60.3282,0.00062056,0.00087203,0.0,0 STARLINK-3635,1 51981U 22025AB  22088.83334491  .00087203  00000-0  62056-3 0  9992,2 51981  53.2187  39.4324 0000936 106.8410  60.3282 15.73152986  4467,6728.029,91.536,350.524,349.264,0.0
51981.0,STARLINK-3635,PAYLOAD,2022-03-29 22:00:00,15.73194876,9.4e-05,53.219,39.0205,105.3716,174.0103,0.00015192,0.00020749,0.0,0 STARLINK-3635,1 51981U 22025AB  22088.91667824  .00020749  00000-0  15192-3 0  9991,2 51981  53.2190  39.0205 0000940 105.3716 174.0103 15.73194876  3438,6727.91,91.533,350.407,349.142,0.0
51981.0,STARLINK-3635,PAYLOAD,2022-03-30 04:00:00,15.73201202,0.0001107,53.2189,37.7852,89.071,167.0108,-0.00011206,-0.00016316,0.0,0 STARLINK-3635,1 51981U 22025AB  22089.16667824 -.00016316  00000-0 -11206-3 0  9998,2 51981  53.2189  37.7852 0001107  89.0710 167.0108 15.73201202  4527,6727.892,91.533,350.50199999999984,349.01199999999994,0.0
51981.0,STARLINK-3635,PAYLOAD,2022-03-30 14:00:01,15.731896300000002,0.0001196,53.2189,35.7219,98.9281,358.3785,-5.9571e-05,-8.967e-05,0.0,0 STARLINK-3635,1 51981U 22025AB  22089.58335648 -.00008967  00000-0 -59571-4 0  9991,2 51981  53.2189  35.7219 0001196  98.9281 358.3785 15.73189630  3538,6727.925,91.534,350.594,348.985,0.0
51981.0,STARLINK-3635,PAYLOAD,2022-03-30 20:00:01,15.73176597,0.0001378,53.2189,34.4845,105.0089,328.9131,0.00062825,0.00088394,0.0,0 STARLINK-3635,1 51981U 22025AB  22089.83334491  .00088394  00000-0  62825-3 0  9999,2 51981  53.2189  34.4845 0001378 105.0089 328.9131 15.73176597  4624,6727.962,91.535,350.754,348.9,0.0
51981.0,STARLINK-3635,PAYLOAD,2022-03-30 22:00:00,15.73222301,0.0001339,53.219,34.0727,105.8521,80.2893,6.9231e-05,9.116e-05,0.0,0 STARLINK-3635,1 51981U 22025AB  22089.91667824  .00009116  00000-0  69231-4 0  9991,2 51981  53.2190  34.0727 0001339 105.8521  80.2893 15.73222301  3590,6727.831999999999,91.532,350.597,348.796,0.0
51981.0,STARLINK-3635,PAYLOAD,2022-03-31 04:00:00,15.732296,0.0001233,53.2188,32.8372,96.0472,66.8149,-0.0002359,-0.00033636,0.0,0 STARLINK-3635,1 51981U 22025AB  22090.16667824 -.00033636  00000-0 -23590-3 0  9993,2 51981  53.2188  32.8372 0001233  96.0472  66.8149 15.73229600  4671,6727.811,91.531,350.505,348.846,0.0
51981.0,STARLINK-3635,PAYLOAD,2022-03-31 14:00:01,15.73166829,0.0001284999999999,53.219,30.7726,104.6679,259.3896,0.00048101,0.00067333,0.0,0 STARLINK-3635,1 51981U 22025AB  22090.58334491  .00067333  00000-0  48101-3 0  9994,2 51981  53.2190  30.7726 0001285 104.6679 259.3896 15.73166829  3698,6727.99,91.535,350.719,348.99,0.0
51981.0,STARLINK-3635,PAYLOAD,2022-03-31 20:00:01,15.73230931,0.0001328,53.2194,29.5362,109.2607,231.4883,0.00058258,0.00082052,0.0,0 STARLINK-3635,1 51981U 22025AB  22090.83334491  .00082052  00000-0  58258-3 0  9991,2 51981  53.2194  29.5362 0001328 109.2607 231.4883 15.73230931  4788,6727.807,91.531,350.565,348.779,0.0
51981.0,STARLINK-3635,PAYLOAD,2022-03-31 22:00:00,15.73280394,0.000134,53.2194,29.1244,107.9343,345.0486,-4.8729e-05,-7.477e-05,0.0,0 STARLINK-3635,1 51981U 22025AB  22090.91667824 -.00007477  00000-0 -48729-4 0  9992,2 51981  53.2194  29.1244 0001340 107.9343 345.0486 15.73280394  3710,6727.666,91.529,350.432,348.629,0.0
51981.0,STARLINK-3635,PAYLOAD,2022-04-01 04:00:01,15.73285301,0.0001281,53.2195,27.8889,98.1437,331.6764,-0.00033885,-0.00048078,0.0,0 STARLINK-3635,1 51981U 22025AB  22091.16668981 -.00048078  00000-0 -33885-3 0  9993,2 51981  53.2195  27.8889 0001281  98.1437 331.6764 15.73285301  4837,6727.651999999999,91.528,350.379,348.655,0.0
51981.0,STARLINK-3635,PAYLOAD,2022-04-01 14:00:01,15.73229288,0.0001395999999999,53.2194,25.8254,107.1593,163.8504,-0.00059285,-0.00083109,0.0,0 STARLINK-3635,1 51981U 22025AB  22091.58334491 -.00083109  00000-0 -59285-3 0  9991,2 51981  53.2194  25.8254 0001396 107.1593 163.8504 15.73229288  3716,6727.812,91.531,350.616,348.737,0.0
51981.0,STARLINK-3635,PAYLOAD,2022-04-01 20:00:01,15.73179545,0.0001419999999999,53.219,24.588,115.9419,131.769,1.2009e-05,1.064e-05,0.0,0 STARLINK-3635,1 51981U 22025AB  22091.83334491  .00001064  00000-0  12009-4 0  9991,2 51981  53.2190  24.5880 0001420 115.9419 131.7690 15.73179545  4941,6727.953,91.534,350.774,348.86300000000006,0.0
51981.0,STARLINK-3635,PAYLOAD,2022-04-01 22:00:00,15.731991,0.000127,53.2192,24.175,111.9024,248.0283,-0.00032368,-0.00045797,0.0,0 STARLINK-3635,1 51981U 22025AB  22091.91667824 -.00045797  00000-0 -32368-3 0  9991,2 51981  53.2192  24.1750 0001270 111.9024 248.0283 15.73199100  3696,6727.898,91.533,350.617,348.908,0.0
